{"fetched_at":"2026-07-18T06:28:10.739Z","source":"https://celestrak.org/NORAD/elements/gp.php?NAME=HULIANWANG&FORMAT=JSON","constellation":"guowang","records":[{"OBJECT_NAME":"HULIANWANG DIGUI-140","OBJECT_ID":"2026-007D","EPOCH":"2026-07-17T18:41:43.653408","CLASSIFICATION_TYPE":"U","MEAN_MOTION":13.2932615,"ECCENTRICITY":0.00008674,"INCLINATION":50.0073,"RA_OF_ASC_NODE":336.3221,"ARG_OF_PERICENTER":124.7316,"MEAN_ANOMALY":235.3638,"EPHEMERIS_TYPE":0,"NORAD_CAT_ID":67438,"ELEMENT_SET_NO":999,"REV_AT_EPOCH":2485,"BSTAR":0.0000375606,"MEAN_MOTION_DOT":-0.00000107,"MEAN_MOTION_DDOT":0},{"OBJECT_NAME":"HULIANWANG DIGUI-141","OBJECT_ID":"2026-007E","EPOCH":"2026-07-17T17:53:33.787680","CLASSIFICATION_TYPE":"U","MEAN_MOTION":13.29326922,"ECCENTRICITY":0.00008701,"INCLINATION":50.0066,"RA_OF_ASC_NODE":336.1378,"ARG_OF_PERICENTER":122.0632,"MEAN_ANOMALY":238.0325,"EPHEMERIS_TYPE":0,"NORAD_CAT_ID":67439,"ELEMENT_SET_NO":999,"REV_AT_EPOCH":2485,"BSTAR":0.00006419783,"MEAN_MOTION_DOT":-9.4e-7,"MEAN_MOTION_DDOT":0},{"OBJECT_NAME":"HULIANWANG DIGUI-142","OBJECT_ID":"2026-007F","EPOCH":"2026-07-17T19:29:50.304192","CLASSIFICATION_TYPE":"U","MEAN_MOTION":13.29326757,"ECCENTRICITY":0.00008715,"INCLINATION":50.0141,"RA_OF_ASC_NODE":335.9418,"ARG_OF_PERICENTER":126.1292,"MEAN_ANOMALY":233.9661,"EPHEMERIS_TYPE":0,"NORAD_CAT_ID":67440,"ELEMENT_SET_NO":999,"REV_AT_EPOCH":2486,"BSTAR":0.000062741109,"MEAN_MOTION_DOT":-9.5e-7,"MEAN_MOTION_DDOT":0},{"OBJECT_NAME":"HULIANWANG DIGUI-143","OBJECT_ID":"2026-007G","EPOCH":"2026-07-17T19:17:52.615680","CLASSIFICATION_TYPE":"U","MEAN_MOTION":13.29325112,"ECCENTRICITY":0.00007215,"INCLINATION":50.012,"RA_OF_ASC_NODE":335.8692,"ARG_OF_PERICENTER":127.9407,"MEAN_ANOMALY":232.1531,"EPHEMERIS_TYPE":0,"NORAD_CAT_ID":67441,"ELEMENT_SET_NO":999,"REV_AT_EPOCH":2486,"BSTAR":0.000048502413,"MEAN_MOTION_DOT":-0.00000102,"MEAN_MOTION_DDOT":0},{"OBJECT_NAME":"HULIANWANG DIGUI-144","OBJECT_ID":"2026-007H","EPOCH":"2026-07-17T19:05:33.931968","CLASSIFICATION_TYPE":"U","MEAN_MOTION":13.29329377,"ECCENTRICITY":0.00008759,"INCLINATION":50.0107,"RA_OF_ASC_NODE":335.8093,"ARG_OF_PERICENTER":128.9139,"MEAN_ANOMALY":231.1811,"EPHEMERIS_TYPE":0,"NORAD_CAT_ID":67442,"ELEMENT_SET_NO":999,"REV_AT_EPOCH":2486,"BSTAR":0.000046305425,"MEAN_MOTION_DOT":-0.00000103,"MEAN_MOTION_DDOT":0},{"OBJECT_NAME":"HULIANWANG DIGUI-145","OBJECT_ID":"2026-007J","EPOCH":"2026-07-17T18:53:49.060896","CLASSIFICATION_TYPE":"U","MEAN_MOTION":13.2932592,"ECCENTRICITY":0.0000836,"INCLINATION":50.0112,"RA_OF_ASC_NODE":335.7724,"ARG_OF_PERICENTER":126.0437,"MEAN_ANOMALY":234.0513,"EPHEMERIS_TYPE":0,"NORAD_CAT_ID":67443,"ELEMENT_SET_NO":999,"REV_AT_EPOCH":2486,"BSTAR":0.000041633333,"MEAN_MOTION_DOT":-0.00000105,"MEAN_MOTION_DDOT":0},{"OBJECT_NAME":"HULIANWANG DIGUI-146","OBJECT_ID":"2026-013A","EPOCH":"2026-07-17T10:57:02.240352","CLASSIFICATION_TYPE":"U","MEAN_MOTION":13.29325354,"ECCENTRICITY":0.0001347,"INCLINATION":50.0067,"RA_OF_ASC_NODE":247.3473,"ARG_OF_PERICENTER":226.6533,"MEAN_ANOMALY":133.4227,"EPHEMERIS_TYPE":0,"NORAD_CAT_ID":67522,"ELEMENT_SET_NO":999,"REV_AT_EPOCH":2407,"BSTAR":0.000062701,"MEAN_MOTION_DOT":-9.5e-7,"MEAN_MOTION_DDOT":0},{"OBJECT_NAME":"HULIANWANG DIGUI-147","OBJECT_ID":"2026-013B","EPOCH":"2026-07-17T14:21:18.623808","CLASSIFICATION_TYPE":"U","MEAN_MOTION":13.29328874,"ECCENTRICITY":0.0001253,"INCLINATION":50.004,"RA_OF_ASC_NODE":246.7159,"ARG_OF_PERICENTER":227.7571,"MEAN_ANOMALY":132.3194,"EPHEMERIS_TYPE":0,"NORAD_CAT_ID":67523,"ELEMENT_SET_NO":999,"REV_AT_EPOCH":2409,"BSTAR":0.000051206,"MEAN_MOTION_DOT":-0.000001,"MEAN_MOTION_DDOT":0},{"OBJECT_NAME":"HULIANWANG DIGUI-148","OBJECT_ID":"2026-013C","EPOCH":"2026-07-17T12:20:59.089920","CLASSIFICATION_TYPE":"U","MEAN_MOTION":13.29326789,"ECCENTRICITY":0.0001289,"INCLINATION":50.0078,"RA_OF_ASC_NODE":247.0052,"ARG_OF_PERICENTER":226.9628,"MEAN_ANOMALY":133.1136,"EPHEMERIS_TYPE":0,"NORAD_CAT_ID":67524,"ELEMENT_SET_NO":999,"REV_AT_EPOCH":2408,"BSTAR":0.000062195,"MEAN_MOTION_DOT":-9.5e-7,"MEAN_MOTION_DDOT":0},{"OBJECT_NAME":"HULIANWANG DIGUI-149","OBJECT_ID":"2026-013D","EPOCH":"2026-07-16T12:41:47.638176","CLASSIFICATION_TYPE":"U","MEAN_MOTION":13.2933131,"ECCENTRICITY":0.0001512,"INCLINATION":50.0074,"RA_OF_ASC_NODE":250.4586,"ARG_OF_PERICENTER":225.6042,"MEAN_ANOMALY":134.4706,"EPHEMERIS_TYPE":0,"NORAD_CAT_ID":67525,"ELEMENT_SET_NO":999,"REV_AT_EPOCH":2395,"BSTAR":0.000013371,"MEAN_MOTION_DOT":-0.00000118,"MEAN_MOTION_DDOT":0},{"OBJECT_NAME":"HULIANWANG DIGUI-150","OBJECT_ID":"2026-013E","EPOCH":"2026-07-17T11:45:07.983072","CLASSIFICATION_TYPE":"U","MEAN_MOTION":13.29324976,"ECCENTRICITY":0.0001289,"INCLINATION":50.0037,"RA_OF_ASC_NODE":246.8073,"ARG_OF_PERICENTER":229.8347,"MEAN_ANOMALY":130.2413,"EPHEMERIS_TYPE":0,"NORAD_CAT_ID":67526,"ELEMENT_SET_NO":999,"REV_AT_EPOCH":2410,"BSTAR":-0.00011253,"MEAN_MOTION_DOT":-0.00000176,"MEAN_MOTION_DDOT":0},{"OBJECT_NAME":"HULIANWANG DIGUI-151","OBJECT_ID":"2026-013F","EPOCH":"2026-07-17T11:57:06.667776","CLASSIFICATION_TYPE":"U","MEAN_MOTION":13.29327373,"ECCENTRICITY":0.000122,"INCLINATION":50.0089,"RA_OF_ASC_NODE":246.9182,"ARG_OF_PERICENTER":227.7285,"MEAN_ANOMALY":132.3484,"EPHEMERIS_TYPE":0,"NORAD_CAT_ID":67527,"ELEMENT_SET_NO":999,"REV_AT_EPOCH":2408,"BSTAR":-0.000077219,"MEAN_MOTION_DOT":-0.0000016,"MEAN_MOTION_DDOT":0},{"OBJECT_NAME":"HULIANWANG DIGUI-152","OBJECT_ID":"2026-013G","EPOCH":"2026-07-17T11:32:57.856416","CLASSIFICATION_TYPE":"U","MEAN_MOTION":13.29332639,"ECCENTRICITY":0.0001267,"INCLINATION":50.0024,"RA_OF_ASC_NODE":246.7537,"ARG_OF_PERICENTER":229.2423,"MEAN_ANOMALY":130.8339,"EPHEMERIS_TYPE":0,"NORAD_CAT_ID":67528,"ELEMENT_SET_NO":999,"REV_AT_EPOCH":2408,"BSTAR":0.000068534,"MEAN_MOTION_DOT":-9.2e-7,"MEAN_MOTION_DDOT":0},{"OBJECT_NAME":"HULIANWANG DIGUI-153","OBJECT_ID":"2026-013H","EPOCH":"2026-07-17T11:21:05.177376","CLASSIFICATION_TYPE":"U","MEAN_MOTION":13.29323964,"ECCENTRICITY":0.0001298,"INCLINATION":50.0027,"RA_OF_ASC_NODE":246.7137,"ARG_OF_PERICENTER":231.0426,"MEAN_ANOMALY":129.033,"EPHEMERIS_TYPE":0,"NORAD_CAT_ID":67529,"ELEMENT_SET_NO":999,"REV_AT_EPOCH":2407,"BSTAR":0.000062066,"MEAN_MOTION_DOT":-9.5e-7,"MEAN_MOTION_DDOT":0},{"OBJECT_NAME":"HULIANWANG DIGUI-154","OBJECT_ID":"2026-013J","EPOCH":"2026-07-17T09:20:38.023008","CLASSIFICATION_TYPE":"U","MEAN_MOTION":13.29332429,"ECCENTRICITY":0.0001271,"INCLINATION":50.0051,"RA_OF_ASC_NODE":246.9789,"ARG_OF_PERICENTER":228.1884,"MEAN_ANOMALY":131.888,"EPHEMERIS_TYPE":0,"NORAD_CAT_ID":67530,"ELEMENT_SET_NO":999,"REV_AT_EPOCH":2406,"BSTAR":0.000062078,"MEAN_MOTION_DOT":-9.5e-7,"MEAN_MOTION_DDOT":0},{"OBJECT_NAME":"HULIANWANG DIGUI-155","OBJECT_ID":"2026-047A","EPOCH":"2026-07-17T18:02:47.797440","CLASSIFICATION_TYPE":"U","MEAN_MOTION":13.2932579,"ECCENTRICITY":0.00009059,"INCLINATION":50.0049,"RA_OF_ASC_NODE":306.7627,"ARG_OF_PERICENTER":208.4106,"MEAN_ANOMALY":151.6717,"EPHEMERIS_TYPE":0,"NORAD_CAT_ID":68129,"ELEMENT_SET_NO":999,"REV_AT_EPOCH":1713,"BSTAR":0.000068195139,"MEAN_MOTION_DOT":-9.2e-7,"MEAN_MOTION_DDOT":0}]}
