HULIANWANG DIGUI-140    
1 67438U 26007D   26198.77897747 -.00000107  00000+0  37561-4 0  9999
2 67438  50.0073 336.3221 0000867 124.7316 235.3638 13.29326150 24851
HULIANWANG DIGUI-141    
1 67439U 26007E   26198.74552995 -.00000094  00000+0  64198-4 0  9991
2 67439  50.0066 336.1378 0000870 122.0632 238.0325 13.29326922 24851
HULIANWANG DIGUI-142    
1 67440U 26007F   26198.81238778 -.00000095  00000+0  62741-4 0  9994
2 67440  50.0141 335.9418 0000871 126.1292 233.9661 13.29326757 24861
HULIANWANG DIGUI-143    
1 67441U 26007G   26198.80408120 -.00000102  00000+0  48502-4 0  9992
2 67441  50.0120 335.8692 0000721 127.9407 232.1531 13.29325112 24864
HULIANWANG DIGUI-144    
1 67442U 26007H   26198.79553162 -.00000103  00000+0  46305-4 0  9998
2 67442  50.0107 335.8093 0000875 128.9139 231.1811 13.29329377 24865
HULIANWANG DIGUI-145    
1 67443U 26007J   26198.78737339 -.00000105  00000+0  41633-4 0  9999
2 67443  50.0112 335.7724 0000836 126.0437 234.0513 13.29325920 24860
HULIANWANG DIGUI-146    
1 67522U 26013A   26198.45627593 -.00000095  00000+0  62701-4 0  9995
2 67522  50.0067 247.3473 0001347 226.6533 133.4227 13.29325354 24076
HULIANWANG DIGUI-147    
1 67523U 26013B   26198.59813222 -.00000100  00000+0  51206-4 0  9992
2 67523  50.0040 246.7159 0001253 227.7571 132.3194 13.29328874 24095
HULIANWANG DIGUI-148    
1 67524U 26013C   26198.51457280 -.00000095  00000+0  62195-4 0  9995
2 67524  50.0078 247.0052 0001289 226.9628 133.1136 13.29326789 24083
HULIANWANG DIGUI-149    
1 67525U 26013D   26197.52902359 -.00000118  00000+0  13371-4 0  9996
2 67525  50.0074 250.4586 0001512 225.6042 134.4706 13.29331310 23953
HULIANWANG DIGUI-150    
1 67526U 26013E   26198.48967573 -.00000176  00000+0 -11253-3 0  9993
2 67526  50.0037 246.8073 0001289 229.8347 130.2413 13.29324976 24105
HULIANWANG DIGUI-151    
1 67527U 26013F   26198.49799384 -.00000160  00000+0 -77219-4 0  9996
2 67527  50.0089 246.9182 0001220 227.7285 132.3484 13.29327373 24080
HULIANWANG DIGUI-152    
1 67528U 26013G   26198.48122519 -.00000092  00000+0  68534-4 0  9999
2 67528  50.0024 246.7537 0001267 229.2423 130.8339 13.29332639 24087
HULIANWANG DIGUI-153    
1 67529U 26013H   26198.47297659 -.00000095  00000+0  62066-4 0  9994
2 67529  50.0027 246.7137 0001298 231.0426 129.0330 13.29323964 24076
HULIANWANG DIGUI-154    
1 67530U 26013J   26198.38932897 -.00000095  00000+0  62078-4 0  9999
2 67530  50.0051 246.9789 0001271 228.1884 131.8880 13.29332429 24062
HULIANWANG DIGUI-155    
1 68129U 26047A   26198.75194210 -.00000092  00000+0  68195-4 0  9994
2 68129  50.0049 306.7627 0000905 208.4106 151.6717 13.29325790 17133
